ORBCOMM FM05            
1 25117U 97084F   24212.40501427  .00002720  00000+0  84426-3 0  9995
2 25117  45.0151 110.1449 0003141  43.5941 316.5157 14.43159692394074
ORBCOMM FM06            
1 25118U 97084G   24212.46184681  .00003043  00000+0  93745-3 0  9994
2 25118  45.0144 109.9918 0002318  53.3185 116.5526 14.43260170394991
ORBCOMM FM07            
1 25119U 97084H   24212.42566578  .00002753  00000+0  85403-3 0  9999
2 25119  45.0140 110.7558 0003843  35.4444 324.6661 14.43156491394982
ORBCOMM FM03            
1 25158U 98007B   24212.39388541  .00002530  00000+0  96850-3 0  9997
2 25158 107.9709 195.3508 0045475  90.4499 270.1851 14.32512957377928
ORBCOMM FM04            
1 25159U 98007C   24212.43715986  .00002840  00000+0  10777-2 0  9997
2 25159 107.9697 198.4338 0041079  87.9102 272.6740 14.32783676378101
ORBCOMM FM17            
1 25413U 98046A   24212.62484702  .00001702  00000+0  66146-3 0  9991
2 25413  44.9963 333.5067 0000376  48.5823 311.5055 14.33433652357004
ORBCOMM FM18            
1 25414U 98046B   24212.46019947  .00001951  00000+0  70940-3 0  9992
2 25414  44.9930 259.6243 0001645 115.1001 245.0017 14.36292915357953
ORBCOMM FM19            
1 25415U 98046C   24212.53507302  .00002031  00000+0  73885-3 0  9999
2 25415  44.9939 260.7916 0000388 102.4838  51.8563 14.36125642357921
